STARLINK-11397 [DTC]    
1 62590U 25008D   26068.52582214  .00236296  00000+0  17886-2 0  9997
2 62590  43.0011 126.6900 0002919 266.1657  93.8877 15.70899051 67203
SILVERSAT               
1 66909U 98067XV  26068.26463686  .00211631  00000+0  15445-2 0  9997
2 66909  51.6252  67.0520 0005527  73.9744 286.1863 15.72057374 15120
